OBJECT_NAME,OBJECT_ID,EPOCH,MEAN_MOTION,ECCENTRICITY,INCLINATION,RA_OF_ASC_NODE,ARG_OF_PERICENTER,MEAN_ANOMALY,EPHEMERIS_TYPE,CLASSIFICATION_TYPE,NORAD_CAT_ID,ELEMENT_SET_NO,REV_AT_EPOCH,BSTAR,MEAN_MOTION_DOT,MEAN_MOTION_DDOT
DMSP 5D-3 F16 (USA 172),2003-048A,2026-07-15T14:51:37.636704,14.14484808,.00080872,98.9897,220.6346,70.1071,85.2738,0,U,28054,999,17350,-.4915429E-5,-.55E-6,0
METEOSAT-9 (MSG-2),2005-049B,2026-07-15T05:01:52.686912,1.00271982,.00021768,9.4230,53.8872,355.9685,4.3331,0,U,28912,999,727,0,.11E-5,0
DMSP 5D-3 F17 (USA 191),2006-050A,2026-07-15T14:17:39.429600,14.14996229,.00096963,98.7387,202.5853,341.7108,18.3716,0,U,29522,999,1644,.4903055E-5,-.34E-6,0
FENGYUN 3A,2008-026A,2026-07-15T10:51:04.601376,14.19576552,.00096614,98.6886,136.7574,51.1669,309.0369,0,U,32958,999,93941,.3210857E-4,.24E-6,0
GOES 14,2009-033A,2026-07-15T13:17:38.420160,1.00097897,.00019281,1.7609,82.6880,40.3512,134.6172,0,U,35491,999,687,0,-.369E-5,0
DMSP 5D-3 F18 (USA 210),2009-057A,2026-07-15T13:39:00.988416,14.14911801,.00112569,98.9056,177.2788,164.4169,195.7352,0,U,35951,999,86360,.10735055E-3,.163E-5,0
EWS-G2 (GOES 15),2010-008A,2026-07-15T14:53:38.639904,1.00268697,.00052588,1.3537,82.4543,54.0034,83.7244,0,U,36411,999,5992,0,.11E-6,0
COMS 1,2010-032A,2026-07-15T01:12:53.093664,0.99167988,.00112925,4.8746,75.0193,14.6864,184.0547,0,U,36744,999,5136,0,-.257E-5,0
FENGYUN 3B,2010-059A,2026-07-15T14:38:03.623424,14.14847035,.00231774,98.9607,242.7424,105.2945,50.4523,0,U,37214,999,81144,-.1381536E-5,-.48E-6,0
SUOMI NPP,2011-061A,2026-07-15T14:31:46.744896,14.19522589,.00007625,98.7955,137.2883,211.6566,148.4564,0,U,37849,999,76247,.22322867E-4,.3E-7,0
METEOSAT-10 (MSG-3),2012-035B,2026-07-15T08:14:17.967264,1.00270848,.0001149,4.7365,60.8801,16.1461,339.7856,0,U,38552,999,5113,0,-.19E-6,0
METOP-B,2012-049A,2026-07-15T15:03:38.214432,14.21446499,.00010898,98.6490,247.5572,252.9478,107.1580,0,U,38771,999,71730,.42110217E-4,.49E-6,0
INSAT-3D,2013-038B,2026-07-15T13:59:06.586368,1.00268330,.00005295,1.9974,82.1805,79.9326,110.5838,0,U,39216,999,4736,0,-.351E-5,0
FENGYUN 3C,2013-052A,2026-07-15T14:18:00.889632,14.15760801,.00136514,98.4999,169.1691,304.7476,55.2413,0,U,39260,999,66258,.29950158E-4,.17E-6,0
METEOR-M 2,2014-037A,2026-07-15T13:59:39.136704,14.21468312,.00051752,98.5126,171.3183,326.1747,33.9100,0,U,40069,999,62335,-.97316885E-4,-.255E-5,0
HIMAWARI-8,2014-060A,2026-07-15T15:38:15.595296,1.00271330,.00011026,0.0173,8.5168,159.7155,140.4963,0,U,40267,999,4304,0,-.286E-5,0
FENGYUN 2G,2014-090A,2026-07-15T16:03:00.204768,1.00280690,.00042883,5.7079,72.4671,171.8076,29.3146,0,U,40367,999,4228,0,-.315E-5,0
METEOSAT-11 (MSG-4),2015-034A,2026-07-15T06:34:11.060832,1.00271884,.0002168,3.2692,70.9316,354.2081,335.7782,0,U,40732,999,749,0,.5E-6,0
ELEKTRO-L 2,2015-074A,2026-07-15T08:10:10.862400,1.00272153,.00010275,6.7621,70.1718,210.2738,120.7862,0,U,41105,999,3878,0,-.131E-5,0
SENTINEL-3A,2016-011A,2026-07-15T14:51:34.983360,14.26739878,.00013608,98.6238,263.5925,89.7254,270.4082,0,U,41335,999,54211,.41183633E-4,.56E-6,0
INSAT-3DR,2016-054A,2026-07-15T13:43:15.605760,1.00270742,.00105713,0.0709,88.7116,181.1828,303.3313,0,U,41752,999,3610,0,-.87E-6,0
HIMAWARI-9,2016-064A,2026-07-15T15:37:57.415872,1.00271888,.00018924,0.0429,248.2463,282.4997,137.9692,0,U,41836,999,3549,0,-.285E-5,0
GOES 16,2016-071A,2026-07-15T14:34:58.427616,1.00270992,.00005338,0.4050,85.4641,94.5073,227.5277,0,U,41866,999,3538,0,-.101E-5,0
FENGYUN 4A,2016-077A,2026-07-15T15:40:07.180896,1.00267839,.00084891,2.3923,79.9518,159.5309,52.7830,0,U,41882,999,3521,0,-.369E-5,0
CYGFM05,2016-078A,2026-07-15T00:02:07.686240,15.57848970,.00059844,34.9570,76.2379,34.9724,325.1393,0,U,41884,999,53309,.20713322E-3,.15947E-3,0
CYGFM04,2016-078B,2026-07-14T22:42:37.258848,15.63068933,.00041929,34.9325,42.8477,81.5025,278.6176,0,U,41885,999,53334,.22411761E-3,.21116E-3,0
CYGFM02,2016-078C,2026-07-15T14:13:07.152096,15.66381016,.00048994,34.9404,32.1902,93.2824,266.8464,0,U,41886,999,53362,.26796513E-3,.28864E-3,0
CYGFM01,2016-078D,2026-07-15T01:00:06.666048,15.58569035,.00059609,34.9399,76.7962,28.3494,331.7554,0,U,41887,999,53305,.21272696E-3,.16835E-3,0
CYGFM08,2016-078E,2026-07-15T00:22:31.516320,15.61449181,.00062018,34.9431,55.7875,66.5859,293.5518,0,U,41888,999,53332,.22394633E-3,.1981E-3,0
CYGFM07,2016-078G,2026-07-15T14:41:39.075648,15.61583140,.00045952,34.9446,40.1234,89.7919,270.3333,0,U,41890,999,53344,.23434054E-3,.20834E-3,0
CYGFM03,2016-078H,2026-07-15T00:11:39.073632,15.61544521,.00045265,34.9402,46.0839,64.7059,295.4135,0,U,41891,999,53332,.22247761E-3,.19744E-3,0
