DMSP 5D-3 F16 (USA 172) 
1 28054U 03048A   26196.61918561 -.00000055  00000+0 -49154-5 0  9994
2 28054  98.9897 220.6346 0008087  70.1071  85.2738 14.14484808173504
METEOSAT-9 (MSG-2)      
1 28912U 05049B   26196.20963758  .00000110  00000+0  00000+0 0  9994
2 28912   9.4230  53.8872 0002176 355.9685   4.3331  1.00271982  7272
DMSP 5D-3 F17 (USA 191) 
1 29522U 06050A   26196.59559525 -.00000034  00000+0  49031-5 0  9999
2 29522  98.7387 202.5853 0009696 341.7108  18.3716 14.14996229 16441
FENGYUN 3A              
1 32958U 08026A   26196.45213659  .00000024  00000+0  32109-4 0  9996
2 32958  98.6886 136.7574 0009661  51.1669 309.0369 14.19576552939418
GOES 14                 
1 35491U 09033A   26196.55391690 -.00000369  00000+0  00000+0 0  9996
2 35491   1.7609  82.6880 0001928  40.3512 134.6172  1.00097897  6870
DMSP 5D-3 F18 (USA 210) 
1 35951U 09057A   26196.56876144  .00000163  00000+0  10735-3 0  9997
2 35951  98.9056 177.2788 0011256 164.4169 195.7352 14.14911801863603
EWS-G2 (GOES 15)        
1 36411U 10008A   26196.62058611  .00000011  00000+0  00000+0 0  9997
2 36411   1.3537  82.4543 0005258  54.0034  83.7244  1.00268697 59920
COMS 1                  
1 36744U 10032A   26196.05061451 -.00000257  00000+0  00000+0 0  9999
2 36744   4.8746  75.0193 0011292  14.6864 184.0547  0.99167988 51365
FENGYUN 3B              
1 37214U 10059A   26196.60976416 -.00000048  00000+0 -13815-5 0  9991
2 37214  98.9607 242.7424 0023177 105.2945  50.4523 14.14847035811443
SUOMI NPP               
1 37849U 11061A   26196.60540214  .00000003  00000+0  22323-4 0  9994
2 37849  98.7955 137.2883 0000762 211.6566 148.4564 14.19522589762474
METEOSAT-10 (MSG-3)     
1 38552U 12035B   26196.34326351 -.00000019  00000+0  00000+0 0  9994
2 38552   4.7365  60.8801 0001149  16.1461 339.7856  1.00270848 51138
METOP-B                 
1 38771U 12049A   26196.62752563  .00000049  00000+0  42110-4 0  9996
2 38771  98.6490 247.5572 0001089 252.9478 107.1580 14.21446499717305
INSAT-3D                
1 39216U 13038B   26196.58271512 -.00000351  00000+0  00000+0 0  9999
2 39216   1.9974  82.1805 0000529  79.9326 110.5838  1.00268330 47368
FENGYUN 3C              
1 39260U 13052A   26196.59584363  .00000017  00000+0  29950-4 0  9994
2 39260  98.4999 169.1691 0013651 304.7476  55.2413 14.15760801662580
METEOR-M 2              
1 40069U 14037A   26196.58309186 -.00000255  00000+0 -97317-4 0  9992
2 40069  98.5126 171.3183 0005175 326.1747  33.9100 14.21468312623351
HIMAWARI-8              
1 40267U 14060A   26196.65156939 -.00000286  00000+0  00000+0 0  9993
2 40267   0.0173   8.5168 0001102 159.7155 140.4963  1.00271330 43042
FENGYUN 2G              
1 40367U 14090A   26196.66875237 -.00000315  00000+0  00000+0 0  9990
2 40367   5.7079  72.4671 0004288 171.8076  29.3146  1.00280690 42286
METEOSAT-11 (MSG-4)     
1 40732U 15034A   26196.27373913  .00000050  00000+0  00000+0 0  9991
2 40732   3.2692  70.9316 0002168 354.2081 335.7782  1.00271884  7492
ELEKTRO-L 2             
1 41105U 15074A   26196.34040350 -.00000131  00000+0  00000+0 0  9995
2 41105   6.7621  70.1718 0001027 210.2738 120.7862  1.00272153 38785
SENTINEL-3A             
1 41335U 16011A   26196.61915490  .00000056  00000+0  41184-4 0  9996
2 41335  98.6238 263.5925 0001360  89.7254 270.4082 14.26739878542112
INSAT-3DR               
1 41752U 16054A   26196.57170840 -.00000087  00000+0  00000+0 0  9995
2 41752   0.0709  88.7116 0010571 181.1828 303.3313  1.00270742 36100
HIMAWARI-9              
1 41836U 16064A   26196.65135898 -.00000285  00000+0  00000+0 0  9992
2 41836   0.0429 248.2463 0001892 282.4997 137.9692  1.00271888 35492
GOES 16                 
1 41866U 16071A   26196.60762069 -.00000101  00000+0  00000+0 0  9991
2 41866   0.4050  85.4641 0000533  94.5073 227.5277  1.00270992 35384
FENGYUN 4A              
1 41882U 16077A   26196.65286089 -.00000369  00000+0  00000+0 0  9999
2 41882   2.3923  79.9518 0008489 159.5309  52.7830  1.00267839 35216
CYGFM05                 
1 41884U 16078A   26196.00147785  .00015947  00000+0  20713-3 0  9994
2 41884  34.9570  76.2379 0005984  34.9724 325.1393 15.57848970533094
CYGFM04                 
1 41885U 16078B   26195.94626457  .00021116  00000+0  22412-3 0  9998
2 41885  34.9325  42.8477 0004192  81.5025 278.6176 15.63068933533342
CYGFM02                 
1 41886U 16078C   26196.59244389  .00028864  00000+0  26797-3 0  9998
2 41886  34.9404  32.1902 0004899  93.2824 266.8464 15.66381016533620
CYGFM01                 
1 41887U 16078D   26196.04174382  .00016835  00000+0  21273-3 0  9993
2 41887  34.9399  76.7962 0005960  28.3494 331.7554 15.58569035533055
CYGFM08                 
1 41888U 16078E   26196.01564255  .00019810  00000+0  22395-3 0  9995
2 41888  34.9431  55.7875 0006201  66.5859 293.5518 15.61449181533329
CYGFM07                 
1 41890U 16078G   26196.61225782  .00020834  00000+0  23434-3 0  9996
2 41890  34.9446  40.1234 0004595  89.7919 270.3333 15.61583140533448
CYGFM03                 
1 41891U 16078H   26196.00809113  .00019744  00000+0  22248-3 0  9996
2 41891  34.9402  46.0839 0004526  64.7059 295.4135 15.61544521533324
